{"type": "FeatureCollection", "features": [ {"type": "Feature", "properties": {"norad_id": 33980, "name": "COSMOS 2251 DEB", "group": "cosmos-2251-debris", "lat": 54.47385746423653, "lon": -164.74106116348622, "alt_km": 681.8851858685739, "timestamp": "2025-12-23T11:34:48.553880+00:00", "meta": {"OBJECT_NAME": "COSMOS 2251 DEB", "OBJECT_ID": "1993-036FP", "EPOCH": "2025-12-22T21:00:49.817376", "MEAN_MOTION": 14.58704851, "ECCENTRICITY": 0.0028053, "INCLINATION": 74.0206, "RA_OF_ASC_NODE": 40.0769, "ARG_OF_PERICENTER": 183.45, "MEAN_ANOMALY": 353.0378, "EPHEMERIS_TYPE": 0, "CLASSIFICATION_TYPE": "U", "NORAD_CAT_ID": 33980, "ELEMENT_SET_NO": 999, "REV_AT_EPOCH": 88942, "BSTAR": 0.00058819, "MEAN_MOTION_DOT": 2.73e-05, "MEAN_MOTION_DDOT": 0}, "tle": {"line1": "1 33980U 93036FP  25356.87557659  .00002730  00000+0  58819-3 0  9992", "line2": "2 33980  74.0206  40.0769 0028053 183.4500 353.0378 14.58704851889422"}}, "geometry": {"type": "Point", "coordinates": [-164.74106116348622, 54.47385746423653]}}, {"type": "Feature", "properties": {"norad_id": 33982, "name": "COSMOS 2251 DEB", "group": "cosmos-2251-debris", "lat": 35.432932861649775, "lon": -8.805654610777028, "alt_km": 638.3622050917511, "timestamp": "2025-12-23T11:34:48.553889+00:00", "meta": {"OBJECT_NAME": "COSMOS 2251 DEB", "OBJECT_ID": "1993-036FR", "EPOCH": "2025-12-23T00:09:28.232064", "MEAN_MOTION": 14.6025514, "ECCENTRICITY": 0.0075414, "INCLINATION": 74.07, "RA_OF_ASC_NODE": 340.3753, "ARG_OF_PERICENTER": 21.9923, "MEAN_ANOMALY": 34.0419, "EPHEMERIS_TYPE": 0, "CLASSIFICATION_TYPE": "U", "NORAD_CAT_ID": 33982, "ELEMENT_SET_NO": 999, "REV_AT_EPOCH": 89309, "BSTAR": 0.00047673, "MEAN_MOTION_DOT": 2.364e-05, "MEAN_MOTION_DDOT": 0}, "tle": {"line1": "1 33982U 93036FR  25357.00657676  .00002364  00000+0  47673-3 0  9999", "line2": "2 33982  74.0700 340.3753 0075414  21.9923  34.0419 14.60255140893095"}}, "geometry": {"type": "Point", "coordinates": [-8.805654610777028, 35.432932861649775]}}, {"type": "Feature", "properties": {"norad_id": 33983, "name": "COSMOS 2251 DEB", "group": "cosmos-2251-debris", "lat": -37.82117635872143, "lon": 114.04136982752271, "alt_km": 729.8069475427319, "timestamp": "2025-12-23T11:34:48.553898+00:00", "meta": {"OBJECT_NAME": "COSMOS 2251 DEB", "OBJECT_ID": "1993-036FS", "EPOCH": "2025-12-22T19:57:24.605856", "MEAN_MOTION": 14.50709651, "ECCENTRICITY": 0.00211807, "INCLINATION": 74.0495, "RA_OF_ASC_NODE": 128.0909, "ARG_OF_PERICENTER": 230.0994, "MEAN_ANOMALY": 291.7759, "EPHEMERIS_TYPE": 0, "CLASSIFICATION_TYPE": "U", "NORAD_CAT_ID": 33983, "ELEMENT_SET_NO": 999, "REV_AT_EPOCH": 88775, "BSTAR": 0.00047436773, "MEAN_MOTION_DOT": 1.843e-05, "MEAN_MOTION_DDOT": 0}, "tle": {"line1": "1 33983U 93036FS  25356.83153479  .00001843  00000+0  47437-3 0  9991", "line2": "2 33983  74.0495 128.0909 0021180 230.0994 291.7759 14.50709651887758"}}, "geometry": {"type": "Point", "coordinates": [114.04136982752271, -37.82117635872143]}}, {"type": "Feature", "properties": {"norad_id": 33984, "name": "COSMOS 2251 DEB", "group": "cosmos-2251-debris", "lat": -44.32011320875094, "lon": -49.9053616864344, "alt_km": 692.8295377593759, "timestamp": "2025-12-23T11:34:48.553907+00:00", "meta": {"OBJECT_NAME": "COSMOS 2251 DEB", "OBJECT_ID": "1993-036FT", "EPOCH": "2025-12-22T16:56:57.230016", "MEAN_MOTION": 14.66442867, "ECCENTRICITY": 0.00225596, "INCLINATION": 74.0097, "RA_OF_ASC_NODE": 327.8548, "ARG_OF_PERICENTER": 163.0409, "MEAN_ANOMALY": 13.8075, "EPHEMERIS_TYPE": 0, "CLASSIFICATION_TYPE": "U", "NORAD_CAT_ID": 33984, "ELEMENT_SET_NO": 999, "REV_AT_EPOCH": 89212, "BSTAR": 0.00081340099, "MEAN_MOTION_DOT": 4.49e-05, "MEAN_MOTION_DDOT": 0}, "tle": {"line1": "1 33984U 93036FT  25356.70621794  .00004490  00000+0  81340-3 0  9990", "line2": "2 33984  74.0097 327.8548 0022559 163.0409  13.8075 14.66442867892123"}}, "geometry": {"type": "Point", "coordinates": [-49.9053616864344, -44.32011320875094]}}, {"type": "Feature", "properties": {"norad_id": 33986, "name": "COSMOS 2251 DEB", "group": "cosmos-2251-debris", "lat": 33.25092234390536, "lon": 91.9015536609361, "alt_km": 771.1386300406493, "timestamp": "2025-12-23T11:34:48.553916+00:00", "meta": {"OBJECT_NAME": "COSMOS 2251 DEB", "OBJECT_ID": "1993-036FV", "EPOCH": "2025-12-22T20:14:08.581632", "MEAN_MOTION": 14.43249769, "ECCENTRICITY": 0.00409947, "INCLINATION": 74.037, "RA_OF_ASC_NODE": 283.9054, "ARG_OF_PERICENTER": 354.4588, "MEAN_ANOMALY": 69.9214, "EPHEMERIS_TYPE": 0, "CLASSIFICATION_TYPE": "U", "NORAD_CAT_ID": 33986, "ELEMENT_SET_NO": 999, "REV_AT_EPOCH": 88174, "BSTAR": 0.00065241854, "MEAN_MOTION_DOT": 2.192e-05, "MEAN_MOTION_DDOT": 0}, "tle": {"line1": "1 33986U 93036FV  25356.84315488  .00002192  00000+0  65242-3 0  9997", "line2": "2 33986  74.0370 283.9054 0040994 354.4588  69.9214 14.43249769881744"}}, "geometry": {"type": "Point", "coordinates": [91.9015536609361, 33.25092234390536]}}, {"type": "Feature", "properties": {"norad_id": 33990, "name": "COSMOS 2251 DEB", "group": "cosmos-2251-debris", "lat": -8.96905927693156, "lon": 91.35553033974965, "alt_km": 1105.2986848629553, "timestamp": "2025-12-23T11:34:48.553926+00:00", "meta": {"OBJECT_NAME": "COSMOS 2251 DEB", "OBJECT_ID": "1993-036FZ", "EPOCH": "2025-12-22T20:43:11.390592", "MEAN_MOTION": 13.50010799, "ECCENTRICITY": 0.04073668, "INCLINATION": 73.9284, "RA_OF_ASC_NODE": 269.7414, "ARG_OF_PERICENTER": 288.2287, "MEAN_ANOMALY": 137.5085, "EPHEMERIS_TYPE": 0, "CLASSIFICATION_TYPE": "U", "NORAD_CAT_ID": 33990, "ELEMENT_SET_NO": 999, "REV_AT_EPOCH": 82866, "BSTAR": 0.00070828878, "MEAN_MOTION_DOT": 7.3e-06, "MEAN_MOTION_DDOT": 0}, "tle": {"line1": "1 33990U 93036FZ  25356.86332628  .00000730  00000+0  70829-3 0  9992", "line2": "2 33990  73.9284 269.7414 0407366 288.2287 137.5085 13.50010799828669"}}, "geometry": {"type": "Point", "coordinates": [91.35553033974965, -8.96905927693156]}}, {"type": "Feature", "properties": {"norad_id": 33992, "name": "COSMOS 2251 DEB", "group": "cosmos-2251-debris", "lat": 9.045851958483693, "lon": 134.4004351507225, "alt_km": 679.7929435818305, "timestamp": "2025-12-23T11:34:48.553935+00:00", "meta": {"OBJECT_NAME": "COSMOS 2251 DEB", "OBJECT_ID": "1993-036GB", "EPOCH": "2025-12-23T01:20:03.992064", "MEAN_MOTION": 14.66292309, "ECCENTRICITY": 0.0051836, "INCLINATION": 74.0248, "RA_OF_ASC_NODE": 317.8375, "ARG_OF_PERICENTER": 72.4854, "MEAN_ANOMALY": 4.8479, "EPHEMERIS_TYPE": 0, "CLASSIFICATION_TYPE": "U", "NORAD_CAT_ID": 33992, "ELEMENT_SET_NO": 999, "REV_AT_EPOCH": 89276, "BSTAR": 0.00084836, "MEAN_MOTION_DOT": 4.745e-05, "MEAN_MOTION_DDOT": 0}, "tle": {"line1": "1 33992U 93036GB  25357.05560176  .00004745  00000+0  84836-3 0  9990", "line2": "2 33992  74.0248 317.8375 0051836  72.4854   4.8479 14.66292309892766"}}, "geometry": {"type": "Point", "coordinates": [134.4004351507225, 9.045851958483693]}}, {"type": "Feature", "properties": {"norad_id": 33994, "name": "COSMOS 2251 DEB", "group": "cosmos-2251-debris", "lat": -14.363359479306412, "lon": -5.267887456164, "alt_km": 764.0376387876158, "timestamp": "2025-12-23T11:34:48.553944+00:00", "meta": {"OBJECT_NAME": "COSMOS 2251 DEB", "OBJECT_ID": "1993-036GD", "EPOCH": "2025-12-22T21:53:18.915072", "MEAN_MOTION": 14.41220645, "ECCENTRICITY": 0.002395, "INCLINATION": 74.0415, "RA_OF_ASC_NODE": 171.5854, "ARG_OF_PERICENTER": 304.1882, "MEAN_ANOMALY": 172.2223, "EPHEMERIS_TYPE": 0, "CLASSIFICATION_TYPE": "U", "NORAD_CAT_ID": 33994, "ELEMENT_SET_NO": 999, "REV_AT_EPOCH": 88566, "BSTAR": 8.6318e-05, "MEAN_MOTION_DOT": 2.53e-06, "MEAN_MOTION_DDOT": 0}, "tle": {"line1": "1 33994U 93036GD  25356.91202448  .00000253  00000+0  86318-4 0  9999", "line2": "2 33994  74.0415 171.5854 0023950 304.1882 172.2223 14.41220645885668"}}, "geometry": {"type": "Point", "coordinates": [-5.267887456164, -14.363359479306412]}}, {"type": "Feature", "properties": {"norad_id": 33995, "name": "COSMOS 2251 DEB", "group": "cosmos-2251-debris", "lat": 21.38946581291826, "lon": 106.12551146168946, "alt_km": 773.9186180307152, "timestamp": "2025-12-23T11:34:48.553953+00:00", "meta": {"OBJECT_NAME": "COSMOS 2251 DEB", "OBJECT_ID": "1993-036GE", "EPOCH": "2025-12-22T17:04:09.968736", "MEAN_MOTION": 14.34818355, "ECCENTRICITY": 0.00594488, "INCLINATION": 74.0618, "RA_OF_ASC_NODE": 101.1095, "ARG_OF_PERICENTER": 112.7002, "MEAN_ANOMALY": 248.045, "EPHEMERIS_TYPE": 0, "CLASSIFICATION_TYPE": "U", "NORAD_CAT_ID": 33995, "ELEMENT_SET_NO": 999, "REV_AT_EPOCH": 87662, "BSTAR": 0.00077827353, "MEAN_MOTION_DOT": 2.228e-05, "MEAN_MOTION_DDOT": 0}, "tle": {"line1": "1 33995U 93036GE  25356.71122649  .00002228  00000+0  77827-3 0  9990", "line2": "2 33995  74.0618 101.1095 0059448 112.7002 248.0450 14.34818355876621"}}, "geometry": {"type": "Point", "coordinates": [106.12551146168946, 21.38946581291826]}}, {"type": "Feature", "properties": {"norad_id": 33999, "name": "COSMOS 2251 DEB", "group": "cosmos-2251-debris", "lat": -71.98018573326354, "lon": 91.83451500010189, "alt_km": 654.1942017883894, "timestamp": "2025-12-23T11:34:48.553962+00:00", "meta": {"OBJECT_NAME": "COSMOS 2251 DEB", "OBJECT_ID": "1993-036GJ", "EPOCH": "2025-12-23T00:41:47.265792", "MEAN_MOTION": 14.83551795, "ECCENTRICITY": 0.0044344, "INCLINATION": 73.917, "RA_OF_ASC_NODE": 210.2534, "ARG_OF_PERICENTER": 102.697, "MEAN_ANOMALY": 257.917, "EPHEMERIS_TYPE": 0, "CLASSIFICATION_TYPE": "U", "NORAD_CAT_ID": 33999, "ELEMENT_SET_NO": 999, "REV_AT_EPOCH": 89403, "BSTAR": 0.0012913, "MEAN_MOTION_DOT": 0.00010803, "MEAN_MOTION_DDOT": 0}, "tle": {"line1": "1 33999U 93036GJ  25357.02901928  .00010803  00000+0  12913-2 0  9996", "line2": "2 33999  73.9170 210.2534 0044344 102.6970 257.9170 14.83551795894036"}}, "geometry": {"type": "Point", "coordinates": [91.83451500010189, -71.98018573326354]}}]}